[{"OBJECT_NAME":"ONEWEB-0436","OBJECT_ID":"2022-012M","EPOCH":"2026-03-09T21:18:18.188064","MEAN_MOTION":13.17647825,"ECCENTRICITY":0.00017784,"INCLINATION":87.916,"RA_OF_ASC_NODE":25.5566,"ARG_OF_PERICENTER":89.6815,"MEAN_ANOMALY":270.452,"EPHEMERIS_TYPE":0,"CLASSIFICATION_TYPE":"U","NORAD_CAT_ID":51633,"ELEMENT_SET_NO":999,"REV_AT_EPOCH":20060,"BSTAR":0.00053249449,"MEAN_MOTION_DOT":2.2e-6,"MEAN_MOTION_DDOT":0},{"OBJECT_NAME":"EXPLORER 29 (GEOS 1)","OBJECT_ID":"1965-089A","EPOCH":"2026-03-09T21:04:19.989696","MEAN_MOTION":11.97074982,"ECCENTRICITY":0.07179699,"INCLINATION":59.3773,"RA_OF_ASC_NODE":252.2896,"ARG_OF_PERICENTER":155.7694,"MEAN_ANOMALY":317.9633,"EPHEMERIS_TYPE":0,"CLASSIFICATION_TYPE":"U","NORAD_CAT_ID":1726,"ELEMENT_SET_NO":999,"REV_AT_EPOCH":63777,"BSTAR":0.00011844229,"MEAN_MOTION_DOT":-5.6e-7,"MEAN_MOTION_DDOT":0}]
